{"fetched_at":"2026-07-24T07:06:19.507Z","source":"https://celestrak.org/NORAD/elements/gp.php?NAME=ASTROCAST&FORMAT=JSON","constellation":"astrocast","records":[{"OBJECT_NAME":"ASTROCAST 0.1","OBJECT_ID":"2018-099AS","EPOCH":"2026-07-23T15:41:37.017888","CLASSIFICATION_TYPE":"U","MEAN_MOTION":15.51961197,"ECCENTRICITY":0.000516,"INCLINATION":97.4364,"RA_OF_ASC_NODE":284.3518,"ARG_OF_PERICENTER":105.5681,"MEAN_ANOMALY":254.6141,"EPHEMERIS_TYPE":0,"NORAD_CAT_ID":43798,"ELEMENT_SET_NO":999,"REV_AT_EPOCH":42008,"BSTAR":0.00070497,"MEAN_MOTION_DOT":0.00042437,"MEAN_MOTION_DDOT":0},{"OBJECT_NAME":"ASTROCAST-0402","OBJECT_ID":"2023-001DE","EPOCH":"2026-07-23T05:41:26.157984","CLASSIFICATION_TYPE":"U","MEAN_MOTION":15.291769,"ECCENTRICITY":0.0006598,"INCLINATION":97.5573,"RA_OF_ASC_NODE":297.989,"ARG_OF_PERICENTER":112.7242,"MEAN_ANOMALY":247.4695,"EPHEMERIS_TYPE":0,"NORAD_CAT_ID":55109,"ELEMENT_SET_NO":999,"REV_AT_EPOCH":15004,"BSTAR":0.00053722,"MEAN_MOTION_DOT":0.00015158,"MEAN_MOTION_DDOT":0},{"OBJECT_NAME":"ASTROCAST-0401","OBJECT_ID":"2023-001DF","EPOCH":"2026-07-23T04:32:50.443008","CLASSIFICATION_TYPE":"U","MEAN_MOTION":15.28767495,"ECCENTRICITY":0.0009321,"INCLINATION":97.5558,"RA_OF_ASC_NODE":297.7395,"ARG_OF_PERICENTER":84.2464,"MEAN_ANOMALY":275.9838,"EPHEMERIS_TYPE":0,"NORAD_CAT_ID":55110,"ELEMENT_SET_NO":999,"REV_AT_EPOCH":19670,"BSTAR":0.0007364,"MEAN_MOTION_DOT":0.00020575,"MEAN_MOTION_DDOT":0},{"OBJECT_NAME":"ASTROCAST-0403","OBJECT_ID":"2023-001DG","EPOCH":"2026-07-23T12:18:06.516288","CLASSIFICATION_TYPE":"U","MEAN_MOTION":15.32663121,"ECCENTRICITY":0.0005357,"INCLINATION":97.5614,"RA_OF_ASC_NODE":299.4429,"ARG_OF_PERICENTER":184.8269,"MEAN_ANOMALY":175.2922,"EPHEMERIS_TYPE":0,"NORAD_CAT_ID":55111,"ELEMENT_SET_NO":999,"REV_AT_EPOCH":15012,"BSTAR":0.00083283,"MEAN_MOTION_DOT":0.0002626,"MEAN_MOTION_DDOT":0},{"OBJECT_NAME":"ASTROCAST-0404","OBJECT_ID":"2023-001DH","EPOCH":"2026-07-23T12:48:28.689696","CLASSIFICATION_TYPE":"U","MEAN_MOTION":15.28919688,"ECCENTRICITY":0.0005761,"INCLINATION":97.5664,"RA_OF_ASC_NODE":299.2305,"ARG_OF_PERICENTER":208.6745,"MEAN_ANOMALY":151.4178,"EPHEMERIS_TYPE":0,"NORAD_CAT_ID":55112,"ELEMENT_SET_NO":999,"REV_AT_EPOCH":15008,"BSTAR":0.00031123,"MEAN_MOTION_DOT":0.00008671,"MEAN_MOTION_DDOT":0}]}
