ASTROCAST 0.1           
1 43798U 18099AS  26204.65390067  .00042437  00000+0  70497-3 0  9997
2 43798  97.4364 284.3518 0005160 105.5681 254.6141 15.51961197420087
ASTROCAST-0402          
1 55109U 23001DE  26204.23710831  .00015158  00000+0  53722-3 0  9996
2 55109  97.5573 297.9890 0006598 112.7242 247.4695 15.29176900150046
ASTROCAST-0401          
1 55110U 23001DF  26204.18947272  .00020575  00000+0  73640-3 0  9993
2 55110  97.5558 297.7395 0009321  84.2464 275.9838 15.28767495196707
ASTROCAST-0403          
1 55111U 23001DG  26204.51257542  .00026260  00000+0  83283-3 0  9996
2 55111  97.5614 299.4429 0005357 184.8269 175.2922 15.32663121150121
ASTROCAST-0404          
1 55112U 23001DH  26204.53366539  .00008671  00000+0  31123-3 0  9998
2 55112  97.5664 299.2305 0005761 208.6745 151.4178 15.28919688150082
